SITRO-AIS 9 (SHCHUKIN)  
1 57201U 23091AM  26188.17823323  .00014250  00000+0  37198-3 0  9996
2 57201  97.5065 258.9218 0005907  13.7194 346.4211 15.38902680167827
UTMN 2 (RS27S)          
1 57203U 23091AP  26188.17437523  .00009340  00000+0  29923-3 0  9992
2 57203  97.5074 255.6778 0007595  19.5674 340.5857 15.32568801167600
SITRO-AIS 12 (SMIRENNIY)
1 57204U 23091AQ  26188.16504992  .00014299  00000+0  36976-3 0  9992
2 57204  97.5079 259.3881 0005429   7.4887 352.6438 15.39195144167846
SITRO-AIS 11 (SHEFFER)  
1 57208U 23091AU  26188.17287123  .00015110  00000+0  38498-3 0  9995
2 57208  97.5077 259.6554 0005348   7.1700 352.9621 15.39635879167862
H2SAT (HEINRICH HERTZ)  
1 57213U 23093A   26187.93127432  .00000017  00000+0  00000+0 0  9996
2 57213   0.0143 103.1163 0001097  34.0278 123.7384  1.00270676 11115
KUZGTU 1 (RS47S)        
1 57217U 23091AV  26188.11126718  .00009087  00000+0  31165-3 0  9991
2 57217  97.5050 252.7991 0010951  34.3730 325.8217 15.30345853167426
QIANKUN-1               
1 57422U 23103B   26187.77776477  .00201077  20009-4  22982-3 0  9993
2 57422  96.1484 231.2442 0036173 142.6775 217.7034 16.07654573170448
FENGYUN 3F              
1 57490U 23111A   26188.19773263  .00000021  00000+0  30441-4 0  9994
2 57490  98.6828 257.8329 0001412  80.3691 279.7645 14.19942541151703
HJ-2F                   
1 57519U 23116A   26188.16719457  .00005522  00000+0  24034-3 0  9994
2 57519  97.3850 193.0409 0007450 345.5320  14.5702 15.22618180161792
XRISM                   
1 57800U 23137A   26187.52611569  .00003461  00000+0  18768-3 0  9991
2 57800  31.0012 234.3179 0007794 159.2962 200.7994 15.12631514155796
METEOR-M2 4             
1 59051U 24039A   26188.16055593  .00000015  00000+0  26288-4 0  9992
2 59051  98.7020 147.2085 0008159 108.7385 251.4679 14.22431588122108
GRBBETA                 
1 60237U 24128C   26187.33338567  .00003982  00000+0  27635-3 0  9994
2 60237  61.9891 149.0849 0038191 138.6902 221.7091 15.06767391109153
TRANSPORTER-11 OBJECT A 
1 60468U 24149A   26187.21273139  .00008567  00000+0  26911-3 0  9993
2 60468  97.3721 267.0866 0004407 139.2620 220.8952 15.33239338104977
WARATAH SEED-1          
1 60469U 24149B   26187.71780789  .00010699  00000+0  30288-3 0  9994
2 60469  97.3680 268.3167 0002876 137.0194 223.1275 15.36467018105112
PHISAT 2                
1 60470U 24149C   26188.17532449  .00005397  00000+0  18083-3 0  9993
2 60470  97.3746 267.2833 0002754 137.7603 222.3851 15.31345037105057
LEMUR-2-TOMATOKECHUP    
1 60471U 24149D   26187.71347409  .00008991  00000+0  25500-3 0  9998
2 60471  97.3789 269.8148 0002908 137.9028 222.2440 15.36460405105163
CONNECTA IOT-1          
1 60472U 24149E   26188.06120891  .00003182  00000+0  13548-3 0  9998
2 60472  97.3745 264.0177 0002099 159.6473 200.4848 15.23700125104825
LOPEN                   
1 60473U 24149F   26187.16929484  .00016279  00000+0  40606-3 0  9990
2 60473  97.3769 270.6922 0002251 150.0988 210.0388 15.40275022105187
ROCK                    
1 60474U 24149G   26187.22092936  .00015933  00000+0  39759-3 0  9994
2 60474  97.3764 270.7588 0002574 149.0840 211.0558 15.40266018105191
CONNECTA IOT-3          
1 60475U 24149H   26188.01675122  .00003442  00000+0  14625-3 0  9994
2 60475  97.3723 263.7215 0003196 164.5681 195.5654 15.23712963104820
QUBE                    
1 60476U 24149J   26187.69966953  .00022064  00000+0  42036-3 0  9991
2 60476  97.3769 274.5214 0003101 148.1376 212.0063 15.48202046105480
WREN-1                  
1 60478U 24149L   26187.73291715  .00016268  00000+0  37844-3 0  9995
2 60478  97.3757 272.0607 0004817 176.6834 183.4446 15.42378651105338
TOMORROW-S1             
1 60479U 24149M   26187.72038896  .00005883  00000+0  18694-3 0  9997
2 60479  97.3741 268.1341 0003475 150.7548 209.3890 15.33010122105086
FLOCK 4BE-18            
1 60480U 24149N   26187.67643088  .00014874  00000+0  34412-3 0  9994
2 60480  97.3719 271.6184 0004418 172.5556 187.5758 15.42564534105313
FLOCK 4BE-7             
1 60481U 24149P   26188.02702595  .00018577  00000+0  44899-3 0  9998
2 60481  97.3750 271.2759 0003703 170.7325 189.3991 15.41201300105309
TOMORROW-S2             
1 60485U 24149T   26187.75043017  .00006610  00000+0  20945-3 0  9999
2 60485  97.3810 268.6719 0003069 171.0564 189.0733 15.33055957105082
FLOCK 4BE-36            
1 60486U 24149U   26188.02638873  .00013008  00000+0  29345-3 0  9993
2 60486  97.3735 272.7003 0004141 175.2705 184.8583 15.43353640105410
FLOCK 4BE-25            
1 60487U 24149V   26188.17767941  .00010672  00000+0  27493-3 0  9995
2 60487  97.3790 271.4701 0003132 160.0470 200.0899 15.39388814105319
